NORAD_CAT_ID,OBJECT_NAME,OBJECT_TYPE,EPOCH,MEAN_MOTION,ECCENTRICITY,INCLINATION,RA_OF_ASC_NODE,ARG_OF_PERICENTER,MEAN_ANOMALY,BSTAR,MEAN_MOTION_DOT,MEAN_MOTION_DDOT,TLE_LINE0,TLE_LINE1,TLE_LINE2,SEMIMAJOR_AXIS,PERIOD,APOGEE,PERIGEE,DECAYED
52865.0,STARLINK-4274,PAYLOAD,2022-07-27 16:00:00,15.73364644,0.0003095,53.2137,206.1927,3.2264,215.9578,-0.0013412,-0.00186123,0.0,0 STARLINK-4274,1 52865U 22062AM  22208.66667824 -.00186123  00000-0 -13412-2 0  9993,2 52865  53.2137 206.1927 0003095   3.2264 215.9578 15.73364644  6815,6727.426,91.524,351.37300000000016,347.209,0.0
52865.0,STARLINK-4274,PAYLOAD,2022-07-27 22:00:00,15.73274286,0.0002969,53.2138,204.9541,0.1502,195.8391,-0.0015864,-0.00218353,0.0,0 STARLINK-4274,1 52865U 22062AM  22208.91667824 -.00218353  00000-0 -15864-2 0  9995,2 52865  53.2138 204.9541 0002969   0.1502 195.8391 15.73274286  1304,6727.683000000001,91.529,351.546,347.551,0.0
52865.0,STARLINK-4274,PAYLOAD,2022-07-28 14:00:01,15.73104292,0.0003273,53.2141,201.6571,2.1107,11.5836,6.0154e-05,7.795e-05,0.0,0 STARLINK-4274,1 52865U 22062AM  22209.58334491  .00007795  00000-0  60154-4 0  9998,2 52865  53.2141 201.6571 0003273   2.1107  11.5836 15.73104292  1304,6728.168000000002,91.539,352.235,347.831,0.0
52865.0,STARLINK-4274,PAYLOAD,2022-07-28 22:00:00,15.73092939,0.0003057,53.2143,200.0062,4.6983,97.8038,0.00044449,0.00061946,0.0,0 STARLINK-4274,1 52865U 22062AM  22209.91667824  .00061946  00000-0  44449-3 0  9990,2 52865  53.2143 200.0062 0003057   4.6983  97.8038 15.73092939  1308,6728.2,91.539,352.122,348.009,0.0
52865.0,STARLINK-4274,PAYLOAD,2022-07-29 00:00:00,15.73117242,0.0003049,53.2145,199.5942,5.3442,209.3547,0.00023895,0.00032932,0.0,0 STARLINK-4274,1 52865U 22062AM  22210.00001157  .00032932  00000-0  23895-3 0  9998,2 52865  53.2145 199.5942 0003049   5.3442 209.3547 15.73117242  7023,6728.130999999999,91.538,352.048,347.945,0.0
52865.0,STARLINK-4274,PAYLOAD,2022-07-29 14:00:01,15.73166064,0.0003278,53.2137,196.7089,5.9336,274.247,-6.5027e-05,-9.728e-05,0.0,0 STARLINK-4274,1 52865U 22062AM  22210.58334491 -.00009728  00000-0 -65027-4 0  9994,2 52865  53.2137 196.7089 0003278   5.9336 274.2470 15.73166064  1304,6727.9919999999975,91.535,352.06199999999984,347.651,0.0
52865.0,STARLINK-4274,PAYLOAD,2022-07-29 22:00:00,15.73151726,0.000305,53.2141,195.058,8.2229,0.8408,0.00044682,0.00062435,0.0,0 STARLINK-4274,1 52865U 22062AM  22210.91667824  .00062435  00000-0  44682-3 0  9995,2 52865  53.2141 195.0580 0003050   8.2229   0.8408 15.73151726  1305,6728.033,91.536,351.95,347.846,0.0
52865.0,STARLINK-4274,PAYLOAD,2022-07-30 06:00:00,15.73187599,0.0003306,53.2143,193.4106,8.7377,89.2214,9.9314e-05,0.00013333,0.0,0 STARLINK-4274,1 52865U 22062AM  22211.25001157  .00013333  00000-0  99314-4 0  9990,2 52865  53.2143 193.4106 0003306   8.7377  89.2214 15.73187599  7226,6727.931,91.534,352.02,347.571,0.0
52865.0,STARLINK-4274,PAYLOAD,2022-07-30 14:00:01,15.73224342,0.0003314,53.2145,191.7604,8.6097,178.2614,-0.00010867,-0.00015867,0.0,0 STARLINK-4274,1 52865U 22062AM  22211.58334491 -.00015867  00000-0 -10867-3 0  9997,2 52865  53.2145 191.7604 0003314   8.6097 178.2614 15.73224342  1303,6727.826,91.532,351.92,347.461,0.0
52865.0,STARLINK-4274,PAYLOAD,2022-07-30 22:00:00,15.73214468,0.0003143,53.2148,190.1096,11.2849,264.5359,0.00037335,0.00052144,0.0,0 STARLINK-4274,1 52865U 22062AM  22211.91667824  .00052144  00000-0  37335-3 0  9999,2 52865  53.2148 190.1096 0003143  11.2849 264.5359 15.73214468  1302,6727.854,91.532,351.833,347.60400000000016,0.0
52865.0,STARLINK-4274,PAYLOAD,2022-07-31 06:00:02,15.73248466,0.0003401,53.2146,188.462,11.3285,353.5237,-7.054899999999999e-05,-0.00010536,0.0,0 STARLINK-4274,1 52865U 22062AM  22212.25002315 -.00010536  00000-0 -70549-4 0  9991,2 52865  53.2146 188.4620 0003401  11.3285 353.5237 15.73248466  7388,6727.757,91.53,351.91,347.334,0.0
52865.0,STARLINK-4274,PAYLOAD,2022-07-31 14:00:01,15.73248088,0.0003293,53.2142,186.8116,9.5358,84.2357,-0.00033415,-0.00047367,0.0,0 STARLINK-4274,1 52865U 22062AM  22212.58334491 -.00047367  00000-0 -33415-3 0  9992,2 52865  53.2142 186.8116 0003293   9.5358  84.2357 15.73248088  1302,6727.7580000000025,91.53,351.839,347.408,0.0
52865.0,STARLINK-4274,PAYLOAD,2022-07-31 22:00:00,15.73241382,0.0003031,53.2146,185.1609,10.4321,172.3024,-2.1006e-05,-3.576e-05,0.0,0 STARLINK-4274,1 52865U 22062AM  22212.91667824 -.00003576  00000-0 -21006-4 0  9996,2 52865  53.2146 185.1609 0003031  10.4321 172.3024 15.73241382  1306,6727.776999999999,91.531,351.681,347.603,0.0
52865.0,STARLINK-4274,PAYLOAD,2022-08-01 14:00:01,15.73229765,0.0003266999999999,53.2149,181.8628,7.5335,353.1239,-3.3418000000000004e-05,-5.318e-05,0.0,0 STARLINK-4274,1 52865U 22062AM  22213.58334491 -.00005318  00000-0 -33418-4 0  9997,2 52865  53.2149 181.8628 0003267   7.5335 353.1239 15.73229765  1315,6727.81,91.531,351.87300000000016,347.477,0.0
52865.0,STARLINK-4274,PAYLOAD,2022-08-01 22:00:00,15.73253595,0.0003177999999999,53.2151,180.2124,12.4505,77.1565,-0.00047535,-0.0006697999999999,0.0,0 STARLINK-4274,1 52865U 22062AM  22213.91667824 -.00066980  00000-0 -47535-3 0  9999,2 52865  53.2151 180.2124 0003178  12.4505  77.1565 15.73253595  1309,6727.7419999999975,91.53,351.745,347.469,0.0
52865.0,STARLINK-4274,PAYLOAD,2022-08-02 14:00:01,15.73253407,0.0003247,53.2143,176.91400000000004,13.1863,254.3139,-0.00082158,-0.0011467,0.0,0 STARLINK-4274,1 52865U 22062AM  22214.58334491 -.00114670  00000-0 -82158-3 0  9994,2 52865  53.2143 176.9140 0003247  13.1863 254.3139 15.73253407  7755,6727.743,91.53,351.792,347.423,0.0
52865.0,STARLINK-4274,PAYLOAD,2022-08-03 06:00:00,15.73175243,0.0003359,53.2147,173.6165,12.8656,72.4782,0.00033905,0.0004718999999999,0.0,0 STARLINK-4274,1 52865U 22062AM  22215.25001157  .00047190  00000-0  33905-3 0  9995,2 52865  53.2147 173.6165 0003359  12.8656  72.4782 15.73175243  7855,6727.965999999999,91.535,352.091,347.571,0.0
52865.0,STARLINK-4274,PAYLOAD,2022-08-03 14:00:01,15.73231302,0.000325,53.2148,171.9656,12.5252,161.7419,-3.3141e-05,-5.279e-05,0.0,0 STARLINK-4274,1 52865U 22062AM  22215.58334491 -.00005279  00000-0 -33141-4 0  9998,2 52865  53.2148 171.9656 0003250  12.5252 161.7419 15.73231302  1303,6727.806,91.531,351.857,347.4840000000001,0.0
52865.0,STARLINK-4274,PAYLOAD,2022-08-03 22:00:01,15.73259334,0.0003097,53.2148,170.3154,13.4353,249.8617,-0.00046356,-0.00065361,0.0,0 STARLINK-4274,1 52865U 22062AM  22215.91668981 -.00065361  00000-0 -46356-3 0  9998,2 52865  53.2148 170.3154 0003097  13.4353 249.8617 15.73259334  1303,6727.726,91.53,351.675,347.50699999999995,0.0
52865.0,STARLINK-4274,PAYLOAD,2022-08-04 06:00:00,15.73181387,0.0003376,53.2144,168.6678,11.6725,340.5163,0.00039174,0.00054684,0.0,0 STARLINK-4274,1 52865U 22062AM  22216.25001157  .00054684  00000-0  39174-3 0  9996,2 52865  53.2144 168.6678 0003376  11.6725 340.5163 15.73181387  8015,6727.948,91.534,352.085,347.542,0.0
52865.0,STARLINK-4274,PAYLOAD,2022-08-04 14:00:01,15.73238879,0.0003142,53.2139,167.0167,9.4318,71.6833,-0.00064347,-0.00090146,0.0,0 STARLINK-4274,1 52865U 22062AM  22216.58334491 -.00090146  00000-0 -64347-3 0  9997,2 52865  53.2139 167.0167 0003142   9.4318  71.6833 15.73238879  1309,6727.784000000002,91.531,351.76300000000015,347.535,0.0
52865.0,STARLINK-4274,PAYLOAD,2022-08-04 22:00:00,15.73188013,0.0002996,53.2142,165.3669,10.0283,160.0214,0.00021057,0.00029022,0.0,0 STARLINK-4274,1 52865U 22062AM  22216.91667824  .00029022  00000-0  21057-3 0  9997,2 52865  53.2142 165.3669 0002996  10.0283 160.0214 15.73188013  8112,6727.929,91.534,351.81,347.779,0.0
52865.0,STARLINK-4274,PAYLOAD,2022-08-05 06:00:02,15.73202161,0.00029,53.2175,163.7166,12.7497,246.199,4.8778e-05,6.23e-05,0.0,0 STARLINK-4274,1 52865U 22062AM  22217.25002315  .00006230  00000-0  48778-4 0  9999,2 52865  53.2175 163.7166 0002900  12.7497 246.1990 15.73202161  8177,6727.889,91.533,351.705,347.80300000000005,0.0
52865.0,STARLINK-4274,PAYLOAD,2022-08-05 14:00:01,15.73349652,0.0003198999999999,53.2164,162.0685,6.6067,341.3784,-0.0057364,-0.00743446,0.0,0 STARLINK-4274,1 52865U 22062AM  22217.58335648 -.00743446  00000-0 -57364-2 0  9991,2 52865  53.2164 162.0685 0003199   6.6067 341.3784 15.73349652  1303,6727.469,91.524,351.486,347.181,0.0
52865.0,STARLINK-4274,PAYLOAD,2022-08-05 22:00:00,15.73026887,0.0003327,53.2175,160.4193,5.4874,71.1608,-0.0082994,-0.01042647,0.0,0 STARLINK-4274,1 52865U 22062AM  22217.91667824 -.01042647  00000-0 -82994-2 0  9995,2 52865  53.2175 160.4193 0003327   5.4874  71.1608 15.73026887  1302,6728.389,91.543,352.492,348.015,0.0
52865.0,STARLINK-4274,PAYLOAD,2022-08-06 05:18:07,15.7256428,0.0003109,53.2141,158.9141,329.3787,30.7051,-0.0027588,-0.00361808,0.0,0 STARLINK-4274,1 52865U 22062AM  22218.22092468 -.00361808  00000-0 -27588-2 0  9996,2 52865  53.2141 158.9141 0003109 329.3787  30.7051 15.72564280  8324,6729.708000000001,91.57,353.666,349.481,0.0
52865.0,STARLINK-4274,PAYLOAD,2022-08-06 12:55:45,15.7248876,0.0006389999999999,53.2147,157.3432,11.6373,348.4793,-0.00049544,-0.00067623,0.0,0 STARLINK-4274,1 52865U 22062AM  22218.53872616 -.00067623  00000-0 -49544-3 0  9996,2 52865  53.2147 157.3432 0006390  11.6373 348.4793 15.72488760  8378,6729.924,91.575,356.089,347.48800000000006,0.0
52865.0,STARLINK-4274,PAYLOAD,2022-08-06 22:00:00,15.70756561,0.000322,53.2175,155.4886,5.601,333.0913,-0.009275,-0.01055975,0.0,0 STARLINK-4274,1 52865U 22062AM  22218.91667824 -.01055975  00000-0 -92750-2 0  9995,2 52865  53.2175 155.4886 0003220   5.6010 333.0913 15.70756561  1306,6734.871,91.676,358.904,354.56699999999995,0.0
52865.0,STARLINK-4274,PAYLOAD,2022-08-07 14:00:01,15.69239686,0.0001177999999999,53.2176,152.2107,6.0609,142.7649,-0.0099198,-0.01058452,0.0,0 STARLINK-4274,1 52865U 22062AM  22219.58334491 -.01058452  00000-0 -99198-2 0  9996,2 52865  53.2176 152.2107 0001178   6.0609 142.7649 15.69239686  1300,6739.21,91.764,361.869,360.281,0.0
